IXPE                    
1 49954U 21121A   23357.72854815  .00007602  00000+0  59076-3 0  9992
2 49954   0.2300 261.1217 0009920 184.2101 274.7814 14.95899824111426
